{"type": "FeatureCollection", "features": [ {"type": "Feature", "properties": {"norad_id": 34571, "name": "COSMOS 2251 DEB", "group": "cosmos-2251-debris", "lat": 3.634862796655613, "lon": 164.63769191153577, "alt_km": 776.400684687691, "timestamp": "2025-12-22T18:58:53.827401+00:00", "meta": {"OBJECT_NAME": "COSMOS 2251 DEB", "OBJECT_ID": "1993-036VH", "EPOCH": "2025-12-21T21:25:20.768736", "MEAN_MOTION": 14.4895116, "ECCENTRICITY": 0.00652122, "INCLINATION": 74.039, "RA_OF_ASC_NODE": 165.2791, "ARG_OF_PERICENTER": 198.2553, "MEAN_ANOMALY": 161.6266, "EPHEMERIS_TYPE": 0, "CLASSIFICATION_TYPE": "U", "NORAD_CAT_ID": 34571, "ELEMENT_SET_NO": 999, "REV_AT_EPOCH": 87426, "BSTAR": 0.0025690074, "MEAN_MOTION_DOT": 9.985e-05, "MEAN_MOTION_DDOT": 0}, "tle": {"line1": "1 34571U 93036VH  25355.89260149  .00009985  00000+0  25690-2 0  9994", "line2": "2 34571  74.0390 165.2791 0065212 198.2553 161.6266 14.48951160874269"}}, "geometry": {"type": "Point", "coordinates": [164.63769191153577, 3.634862796655613]}}, {"type": "Feature", "properties": {"norad_id": 34572, "name": "COSMOS 2251 DEB", "group": "cosmos-2251-debris", "lat": -73.96445098059901, "lon": 10.584535261083467, "alt_km": 741.2737040821094, "timestamp": "2025-12-22T18:58:53.827411+00:00", "meta": {"OBJECT_NAME": "COSMOS 2251 DEB", "OBJECT_ID": "1993-036VJ", "EPOCH": "2025-12-21T17:36:15.843744", "MEAN_MOTION": 14.50172904, "ECCENTRICITY": 0.00617464, "INCLINATION": 74.0112, "RA_OF_ASC_NODE": 98.5866, "ARG_OF_PERICENTER": 170.7824, "MEAN_ANOMALY": 341.6404, "EPHEMERIS_TYPE": 0, "CLASSIFICATION_TYPE": "U", "NORAD_CAT_ID": 34572, "ELEMENT_SET_NO": 999, "REV_AT_EPOCH": 87508, "BSTAR": 0.001942527, "MEAN_MOTION_DOT": 7.718e-05, "MEAN_MOTION_DDOT": 0}, "tle": {"line1": "1 34572U 93036VJ  25355.73351671  .00007718  00000+0  19425-2 0  9990", "line2": "2 34572  74.0112  98.5866 0061746 170.7824 341.6404 14.50172904875086"}}, "geometry": {"type": "Point", "coordinates": [10.584535261083467, -73.96445098059901]}}, {"type": "Feature", "properties": {"norad_id": 34574, "name": "COSMOS 2251 DEB", "group": "cosmos-2251-debris", "lat": -0.9871487942366111, "lon": -156.0557287527227, "alt_km": 697.3890748486574, "timestamp": "2025-12-22T18:58:53.827421+00:00", "meta": {"OBJECT_NAME": "COSMOS 2251 DEB", "OBJECT_ID": "1993-036VL", "EPOCH": "2025-12-22T03:43:37.953696", "MEAN_MOTION": 14.70698881, "ECCENTRICITY": 0.00671818, "INCLINATION": 74.0679, "RA_OF_ASC_NODE": 24.8931, "ARG_OF_PERICENTER": 42.8565, "MEAN_ANOMALY": 13.7462, "EPHEMERIS_TYPE": 0, "CLASSIFICATION_TYPE": "U", "NORAD_CAT_ID": 34574, "ELEMENT_SET_NO": 999, "REV_AT_EPOCH": 88917, "BSTAR": 0.00094180568, "MEAN_MOTION_DOT": 5.915e-05, "MEAN_MOTION_DDOT": 0}, "tle": {"line1": "1 34574U 93036VL  25356.15530039  .00005915  00000+0  94181-3 0  9996", "line2": "2 34574  74.0679  24.8931 0067181  42.8565  13.7462 14.70698881889176"}}, "geometry": {"type": "Point", "coordinates": [-156.0557287527227, -0.9871487942366111]}}, {"type": "Feature", "properties": {"norad_id": 34576, "name": "COSMOS 2251 DEB", "group": "cosmos-2251-debris", "lat": -37.577423643433846, "lon": 106.42985712003534, "alt_km": 711.2729673978247, "timestamp": "2025-12-22T18:58:53.827431+00:00", "meta": {"OBJECT_NAME": "COSMOS 2251 DEB", "OBJECT_ID": "1993-036VN", "EPOCH": "2025-12-21T18:59:01.576608", "MEAN_MOTION": 14.55482591, "ECCENTRICITY": 0.00082412, "INCLINATION": 74.0347, "RA_OF_ASC_NODE": 121.0492, "ARG_OF_PERICENTER": 258.7159, "MEAN_ANOMALY": 224.7916, "EPHEMERIS_TYPE": 0, "CLASSIFICATION_TYPE": "U", "NORAD_CAT_ID": 34576, "ELEMENT_SET_NO": 999, "REV_AT_EPOCH": 88598, "BSTAR": 0.00067195363, "MEAN_MOTION_DOT": 2.898e-05, "MEAN_MOTION_DDOT": 0}, "tle": {"line1": "1 34576U 93036VN  25355.79099047  .00002898  00000+0  67195-3 0  9998", "line2": "2 34576  74.0347 121.0492 0008241 258.7159 224.7916 14.55482591885986"}}, "geometry": {"type": "Point", "coordinates": [106.42985712003534, -37.577423643433846]}}, {"type": "Feature", "properties": {"norad_id": 34579, "name": "COSMOS 2251 DEB", "group": "cosmos-2251-debris", "lat": 7.614559312618028, "lon": 22.990000705206352, "alt_km": 745.9503091394072, "timestamp": "2025-12-22T18:58:53.827441+00:00", "meta": {"OBJECT_NAME": "COSMOS 2251 DEB", "OBJECT_ID": "1993-036VR", "EPOCH": "2025-12-21T20:40:05.865600", "MEAN_MOTION": 14.45330983, "ECCENTRICITY": 0.00275092, "INCLINATION": 74.0516, "RA_OF_ASC_NODE": 206.9113, "ARG_OF_PERICENTER": 274.1979, "MEAN_ANOMALY": 102.5186, "EPHEMERIS_TYPE": 0, "CLASSIFICATION_TYPE": "U", "NORAD_CAT_ID": 34579, "ELEMENT_SET_NO": 999, "REV_AT_EPOCH": 88306, "BSTAR": 0.00028553024, "MEAN_MOTION_DOT": 9.81e-06, "MEAN_MOTION_DDOT": 0}, "tle": {"line1": "1 34579U 93036VR  25355.86117900  .00000981  00000+0  28553-3 0  9994", "line2": "2 34579  74.0516 206.9113 0027509 274.1979 102.5186 14.45330983883065"}}, "geometry": {"type": "Point", "coordinates": [22.990000705206352, 7.614559312618028]}}, {"type": "Feature", "properties": {"norad_id": 34582, "name": "COSMOS 2251 DEB", "group": "cosmos-2251-debris", "lat": 37.690882850597234, "lon": -93.52307064075045, "alt_km": 717.0183504040015, "timestamp": "2025-12-22T18:58:53.827451+00:00", "meta": {"OBJECT_NAME": "COSMOS 2251 DEB", "OBJECT_ID": "1993-036VU", "EPOCH": "2025-12-22T02:09:59.484384", "MEAN_MOTION": 14.43370574, "ECCENTRICITY": 0.00483706, "INCLINATION": 74.0197, "RA_OF_ASC_NODE": 254.9878, "ARG_OF_PERICENTER": 3.1051, "MEAN_ANOMALY": 357.0396, "EPHEMERIS_TYPE": 0, "CLASSIFICATION_TYPE": "U", "NORAD_CAT_ID": 34582, "ELEMENT_SET_NO": 999, "REV_AT_EPOCH": 88082, "BSTAR": 0.00071548422, "MEAN_MOTION_DOT": 2.422e-05, "MEAN_MOTION_DDOT": 0}, "tle": {"line1": "1 34582U 93036VU  25356.09027181  .00002422  00000+0  71548-3 0  9999", "line2": "2 34582  74.0197 254.9878 0048370   3.1051 357.0396 14.43370574880824"}}, "geometry": {"type": "Point", "coordinates": [-93.52307064075045, 37.690882850597234]}}, {"type": "Feature", "properties": {"norad_id": 34588, "name": "COSMOS 2251 DEB", "group": "cosmos-2251-debris", "lat": 44.413527436295546, "lon": -94.08921305898279, "alt_km": 751.2759526686668, "timestamp": "2025-12-22T18:58:53.827461+00:00", "meta": {"OBJECT_NAME": "COSMOS 2251 DEB", "OBJECT_ID": "1993-036WA", "EPOCH": "2025-12-22T04:32:01.905216", "MEAN_MOTION": 14.42047957, "ECCENTRICITY": 0.00192951, "INCLINATION": 74.0428, "RA_OF_ASC_NODE": 250.7463, "ARG_OF_PERICENTER": 302.4846, "MEAN_ANOMALY": 220.197, "EPHEMERIS_TYPE": 0, "CLASSIFICATION_TYPE": "U", "NORAD_CAT_ID": 34588, "ELEMENT_SET_NO": 999, "REV_AT_EPOCH": 88086, "BSTAR": 0.00036870477, "MEAN_MOTION_DOT": 1.187e-05, "MEAN_MOTION_DDOT": 0}, "tle": {"line1": "1 34588U 93036WA  25356.18891094  .00001187  00000+0  36870-3 0  9993", "line2": "2 34588  74.0428 250.7463 0019295 302.4846 220.1970 14.42047957880869"}}, "geometry": {"type": "Point", "coordinates": [-94.08921305898279, 44.413527436295546]}}, {"type": "Feature", "properties": {"norad_id": 34589, "name": "COSMOS 2251 DEB", "group": "cosmos-2251-debris", "lat": 27.267515747810098, "lon": 47.45197396734862, "alt_km": 815.5779018925223, "timestamp": "2025-12-22T18:58:53.827471+00:00", "meta": {"OBJECT_NAME": "COSMOS 2251 DEB", "OBJECT_ID": "1993-036WB", "EPOCH": "2025-12-21T14:08:27.386304", "MEAN_MOTION": 13.86061939, "ECCENTRICITY": 0.0252385, "INCLINATION": 73.9249, "RA_OF_ASC_NODE": 40.952, "ARG_OF_PERICENTER": 342.507, "MEAN_ANOMALY": 169.9679, "EPHEMERIS_TYPE": 0, "CLASSIFICATION_TYPE": "U", "NORAD_CAT_ID": 34589, "ELEMENT_SET_NO": 999, "REV_AT_EPOCH": 84834, "BSTAR": 0.00033302, "MEAN_MOTION_DOT": 4.67e-06, "MEAN_MOTION_DDOT": 0}, "tle": {"line1": "1 34589U 93036WB  25355.58920586  .00000467  00000+0  33302-3 0  9993", "line2": "2 34589  73.9249  40.9520 0252385 342.5070 169.9679 13.86061939848341"}}, "geometry": {"type": "Point", "coordinates": [47.45197396734862, 27.267515747810098]}}, {"type": "Feature", "properties": {"norad_id": 34590, "name": "COSMOS 2251 DEB", "group": "cosmos-2251-debris", "lat": -22.864301608283313, "lon": -63.392313663448085, "alt_km": 717.9579817702779, "timestamp": "2025-12-22T18:58:53.827481+00:00", "meta": {"OBJECT_NAME": "COSMOS 2251 DEB", "OBJECT_ID": "1993-036WC", "EPOCH": "2025-12-22T06:27:48.696768", "MEAN_MOTION": 14.54836629, "ECCENTRICITY": 0.00680342, "INCLINATION": 74.0443, "RA_OF_ASC_NODE": 304.5231, "ARG_OF_PERICENTER": 71.336, "MEAN_ANOMALY": 55.0668, "EPHEMERIS_TYPE": 0, "CLASSIFICATION_TYPE": "U", "NORAD_CAT_ID": 34590, "ELEMENT_SET_NO": 999, "REV_AT_EPOCH": 89259, "BSTAR": 0.0001329784, "MEAN_MOTION_DOT": 5.59e-06, "MEAN_MOTION_DDOT": 0}, "tle": {"line1": "1 34590U 93036WC  25356.26931362  .00000559  00000+0  13298-3 0  9999", "line2": "2 34590  74.0443 304.5231 0068034  71.3360  55.0668 14.54836629892595"}}, "geometry": {"type": "Point", "coordinates": [-63.392313663448085, -22.864301608283313]}}, {"type": "Feature", "properties": {"norad_id": 34609, "name": "COSMOS 2251 DEB", "group": "cosmos-2251-debris", "lat": -5.553279590762083, "lon": 86.7264605916916, "alt_km": 751.5827060721322, "timestamp": "2025-12-22T18:58:53.827491+00:00", "meta": {"OBJECT_NAME": "COSMOS 2251 DEB", "OBJECT_ID": "1993-036WE", "EPOCH": "2025-12-20T13:02:49.886880", "MEAN_MOTION": 14.21817588, "ECCENTRICITY": 0.0145584, "INCLINATION": 73.7329, "RA_OF_ASC_NODE": 92.459, "ARG_OF_PERICENTER": 310.7374, "MEAN_ANOMALY": 64.0631, "EPHEMERIS_TYPE": 0, "CLASSIFICATION_TYPE": "U", "NORAD_CAT_ID": 34609, "ELEMENT_SET_NO": 999, "REV_AT_EPOCH": 86743, "BSTAR": 0.00051907, "MEAN_MOTION_DOT": 1.244e-05, "MEAN_MOTION_DDOT": 0}, "tle": {"line1": "1 34609U 93036WE  25354.54363295  .00001244  00000+0  51907-3 0  9994", "line2": "2 34609  73.7329  92.4590 0145584 310.7374  64.0631 14.21817588867439"}}, "geometry": {"type": "Point", "coordinates": [86.7264605916916, -5.553279590762083]}}]}